OBJECT_NAME,OBJECT_ID,EPOCH,MEAN_MOTION,ECCENTRICITY,INCLINATION,RA_OF_ASC_NODE,ARG_OF_PERICENTER,MEAN_ANOMALY,EPHEMERIS_TYPE,CLASSIFICATION_TYPE,NORAD_CAT_ID,ELEMENT_SET_NO,REV_AT_EPOCH,BSTAR,MEAN_MOTION_DOT,MEAN_MOTION_DDOT
FORTE,1997-047A,2026-03-09T13:16:50.545920,14.27898608,.0019638,69.9516,239.0563,49.6396,310.6437,0,U,24920,999,48446,.13929E-3,.288E-5,0
IDEFIX & ARIANE 42P R/B,2002-021B,2026-03-09T10:13:21.549504,14.31025981,.0011555,98.5868,7.0354,183.0056,177.1059,0,U,27422,999,24398,.15845E-3,.374E-5,0
